[
    {
        "Altitude(m)": 561736.5817593756,
        "Argument of Periapsis(deg)": 0.019868973332140504,
        "Eccentricity": 0.0,
        "Inclination(deg)": 53.0,
        "Latitude(deg)": -28.013723926345016,
        "Longitude(deg)": 51.11736654233383,
        "Mean Anomaly(deg)": -144.27062139726726,
        "RAAN(deg)": 309.97043010558406,
        "Satellite Name": "Starlink Shell 1 1375",
        "Satellite Number": 1375,
        "Semi-Major Axis(m)": 6931778.249405717,
        "Time(s)": 570
    },
    {
        "Altitude(m)": 561910.595308435,
        "Argument of Periapsis(deg)": 0.02021755181165174,
        "Eccentricity": 0.0,
        "Inclination(deg)": 53.0,
        "Latitude(deg)": -28.473232771336882,
        "Longitude(deg)": 51.55983899747589,
        "Mean Anomaly(deg)": -143.6437901937105,
        "RAAN(deg)": 309.96991133550654,
        "Satellite Name": "Starlink Shell 1 1375",
        "Satellite Number": 1375,
        "Semi-Major Axis(m)": 6931778.249405717,
        "Time(s)": 580
    },
    {
        "Altitude(m)": 562084.9901586741,
        "Argument of Periapsis(deg)": 0.020566130291162974,
        "Eccentricity": 0.0,
        "Inclination(deg)": 53.0,
        "Latitude(deg)": -28.930961621240314,
        "Longitude(deg)": 52.00648976723051,
        "Mean Anomaly(deg)": -143.01695899015385,
        "RAAN(deg)": 309.96939256542913,
        "Satellite Name": "Starlink Shell 1 1375",
        "Satellite Number": 1375,
        "Semi-Major Axis(m)": 6931778.249405717,
        "Time(s)": 590
    },
    {
        "Altitude(m)": 562259.7014724324,
        "Argument of Periapsis(deg)": 0.020914708770674213,
        "Eccentricity": 0.0,
        "Inclination(deg)": 53.0,
        "Latitude(deg)": -29.386862108714684,
        "Longitude(deg)": 52.457419306218604,
        "Mean Anomaly(deg)": -142.3901277865971,
        "RAAN(deg)": 309.96887379535167,
        "Satellite Name": "Starlink Shell 1 1375",
        "Satellite Number": 1375,
        "Semi-Major Axis(m)": 6931778.249405717,
        "Time(s)": 600
    },
    {
        "Altitude(m)": 562434.6641237659,
        "Argument of Periapsis(deg)": 0.021263287250185448,
        "Eccentricity": 0.0,
        "Inclination(deg)": 53.0,
        "Latitude(deg)": -29.840884789418432,
        "Longitude(deg)": 52.91272936365205,
        "Mean Anomaly(deg)": -141.7632965830404,
        "RAAN(deg)": 309.96835502527415,
        "Satellite Name": "Starlink Shell 1 1375",
        "Satellite Number": 1375,
        "Semi-Major Axis(m)": 6931778.249405717,
        "Time(s)": 610
    },
    {
        "Altitude(m)": 562609.8127276684,
        "Argument of Periapsis(deg)": 0.021611865729696686,
        "Eccentricity": 0.0,
        "Inclination(deg)": 53.0,
        "Latitude(deg)": -30.29297911144044,
        "Longitude(deg)": 53.37252347990238,
        "Mean Anomaly(deg)": -141.13646537948367,
        "RAAN(deg)": 309.96783625519674,
        "Satellite Name": "Starlink Shell 1 1375",
        "Satellite Number": 1375,
        "Semi-Major Axis(m)": 6931778.249405717,
        "Time(s)": 620
    },
    {
        "Altitude(m)": 562785.0816693979,
        "Argument of Periapsis(deg)": 0.02196044420920792,
        "Eccentricity": 0.0,
        "Inclination(deg)": 53.0,
        "Latitude(deg)": -30.743093384349393,
        "Longitude(deg)": 53.836905798462205,
        "Mean Anomaly(deg)": -140.509634175927,
        "RAAN(deg)": 309.9673174851192,
        "Satellite Name": "Starlink Shell 1 1375",
        "Satellite Number": 1375,
        "Semi-Major Axis(m)": 6931778.249405717,
        "Time(s)": 630
    },
    {
        "Altitude(m)": 562960.4051338832,
        "Argument of Periapsis(deg)": 0.02230902268871916,
        "Eccentricity": 0.0,
        "Inclination(deg)": 53.0,
        "Latitude(deg)": -31.1911747478895,
        "Longitude(deg)": 54.30598239542787,
        "Mean Anomaly(deg)": -139.88280297237023,
        "RAAN(deg)": 309.96679871504176,
        "Satellite Name": "Starlink Shell 1 1375",
        "Satellite Number": 1375,
        "Semi-Major Axis(m)": 6931778.249405717,
        "Time(s)": 640
    },
    {
        "Altitude(m)": 563135.7171352329,
        "Argument of Periapsis(deg)": 0.022657601168230398,
        "Eccentricity": 0.0,
        "Inclination(deg)": 53.0,
        "Latitude(deg)": -31.637169140366286,
        "Longitude(deg)": 54.77986008328117,
        "Mean Anomaly(deg)": -139.2559717688135,
        "RAAN(deg)": 309.9662799449643,
        "Satellite Name": "Starlink Shell 1 1375",
        "Satellite Number": 1375,
        "Semi-Major Axis(m)": 6931778.249405717,
        "Time(s)": 650
    },
    {
        "Altitude(m)": 563310.9515463173,
        "Argument of Periapsis(deg)": 0.023006179647741636,
        "Eccentricity": 0.0,
        "Inclination(deg)": 53.0,
        "Latitude(deg)": -32.081021266759,
        "Longitude(deg)": 55.25864689106168,
        "Mean Anomaly(deg)": -138.62914056525682,
        "RAAN(deg)": 309.9657611748868,
        "Satellite Name": "Starlink Shell 1 1375",
        "Satellite Number": 1375,
        "Semi-Major Axis(m)": 6931778.249405717,
        "Time(s)": 660
    },
    {
        "Altitude(m)": 563486.0421283701,
        "Argument of Periapsis(deg)": 0.023354758127252868,
        "Eccentricity": 0.0,
        "Inclination(deg)": 53.0,
        "Latitude(deg)": -32.522674566610334,
        "Longitude(deg)": 55.7424525396106,
        "Mean Anomaly(deg)": -138.00230936170013,
        "RAAN(deg)": 309.9652424048093,
        "Satellite Name": "Starlink Shell 1 1375",
        "Satellite Number": 1375,
        "Semi-Major Axis(m)": 6931778.249405717,
        "Time(s)": 670
    },
    {
        "Altitude(m)": 563660.9225606713,
        "Argument of Periapsis(deg)": 0.023703336606764106,
        "Eccentricity": 0.0,
        "Inclination(deg)": 53.0,
        "Latitude(deg)": -32.96207118174856,
        "Longitude(deg)": 56.23138739864359,
        "Mean Anomaly(deg)": -137.37547815814332,
        "RAAN(deg)": 309.96472363473185,
        "Satellite Name": "Starlink Shell 1 1375",
        "Satellite Number": 1375,
        "Semi-Major Axis(m)": 6931778.249405717,
        "Time(s)": 680
    },
    {
        "Altitude(m)": 563835.5264702399,
        "Argument of Periapsis(deg)": 0.024051915086275345,
        "Eccentricity": 0.0,
        "Inclination(deg)": 53.0,
        "Latitude(deg)": -33.39915192389873,
        "Longitude(deg)": 56.72556295100774,
        "Mean Anomaly(deg)": -136.74864695458663,
        "RAAN(deg)": 309.9642048646544,
        "Satellite Name": "Starlink Shell 1 1375",
        "Satellite Number": 1375,
        "Semi-Major Axis(m)": 6931778.249405717,
        "Time(s)": 690
    },
    {
        "Altitude(m)": 564009.7874615374,
        "Argument of Periapsis(deg)": 0.024400493565786583,
        "Eccentricity": 0.0,
        "Inclination(deg)": 53.0,
        "Latitude(deg)": -33.833856242253354,
        "Longitude(deg)": 57.22509225084452,
        "Mean Anomaly(deg)": -136.12181575102997,
        "RAAN(deg)": 309.9636860945769,
        "Satellite Name": "Starlink Shell 1 1375",
        "Satellite Number": 1375,
        "Semi-Major Axis(m)": 6931778.249405717,
        "Time(s)": 700
    },
    {
        "Altitude(m)": 564183.6391461578,
        "Argument of Periapsis(deg)": 0.024749072045297815,
        "Eccentricity": 0.0,
        "Inclination(deg)": 53.0,
        "Latitude(deg)": -34.26612219107648,
        "Longitude(deg)": 57.73008886235387,
        "Mean Anomaly(deg)": -135.49498454747322,
        "RAAN(deg)": 309.96316732449947,
        "Satellite Name": "Starlink Shell 1 1375",
        "Satellite Number": 1375,
        "Semi-Major Axis(m)": 6931778.249405717,
        "Time(s)": 710
    },
    {
        "Altitude(m)": 564357.0151725434,
        "Argument of Periapsis(deg)": 0.025097650524809053,
        "Eccentricity": 0.0,
        "Inclination(deg)": 53.0,
        "Latitude(deg)": -34.695886397422214,
        "Longitude(deg)": 58.24066730445925,
        "Mean Anomaly(deg)": -134.86815334391645,
        "RAAN(deg)": 309.962648554422,
        "Satellite Name": "Starlink Shell 1 1375",
        "Satellite Number": 1375,
        "Semi-Major Axis(m)": 6931778.249405717,
        "Time(s)": 720
    },
    {
        "Altitude(m)": 564529.8492556143,
        "Argument of Periapsis(deg)": 0.02544622900432029,
        "Eccentricity": 0.0,
        "Inclination(deg)": 53.0,
        "Latitude(deg)": -35.12308402905917,
        "Longitude(deg)": 58.75694348803167,
        "Mean Anomaly(deg)": -134.24132214035978,
        "RAAN(deg)": 309.9621297843445,
        "Satellite Name": "Starlink Shell 1 1375",
        "Satellite Number": 1375,
        "Semi-Major Axis(m)": 6931778.249405717,
        "Time(s)": 730
    },
    {
        "Altitude(m)": 564702.0752063987,
        "Argument of Periapsis(deg)": 0.02579480748383153,
        "Eccentricity": 0.0,
        "Inclination(deg)": 53.0,
        "Latitude(deg)": -35.547648762703304,
        "Longitude(deg)": 59.27903363231455,
        "Mean Anomaly(deg)": -133.61449093680307,
        "RAAN(deg)": 309.961611014267,
        "Satellite Name": "Starlink Shell 1 1375",
        "Satellite Number": 1375,
        "Semi-Major Axis(m)": 6931778.249405717,
        "Time(s)": 740
    },
    {
        "Altitude(m)": 564873.6269615924,
        "Argument of Periapsis(deg)": 0.026143385963342765,
        "Eccentricity": 0.0,
        "Inclination(deg)": 53.0,
        "Latitude(deg)": -35.96951275266399,
        "Longitude(deg)": 59.8070546857865,
        "Mean Anomaly(deg)": -132.9876597332463,
        "RAAN(deg)": 309.96109224418956,
        "Satellite Name": "Starlink Shell 1 1375",
        "Satellite Number": 1375,
        "Semi-Major Axis(m)": 6931778.249405717,
        "Time(s)": 750
    }
]